[
    {
      "the_geom": "POINT (-73.89704424213798 40.869933706874875 ",
      "CITY": "Bronx",
      "NAME": "Walton HS - X",
      "ADDRESS": "2780 Reservoir Avenue",
      "ZIP_CODE": 10468,
      "BOROCODE": 2,
      "STATE": "NY",
      "ACCESSIBLE": "Y",
      "BIN": 2015241,
      "BBL": 2032470070
    },
    {
      "the_geom": "POINT (-73.90087575096457 40.82733480011782 ",
      "CITY": "Bronx",
      "NAME": "I.S. 158 - Bronx",
      "ADDRESS": "800 Home Street",
      "ZIP_CODE": 10456,
      "BOROCODE": 2,
      "STATE": "NY",
      "ACCESSIBLE": "Y",
      "BIN": 2004868,
      "BBL": 2026710011
    },
    {
      "the_geom": "POINT (-73.89046989887038 40.843759841511776 ",
      "CITY": "Bronx",
      "NAME": "P.S. 211 - Bronx",
      "ADDRESS": "1919 Prospect Avenue",
      "ZIP_CODE": 10457,
      "BOROCODE": 2,
      "STATE": "NY",
      "ACCESSIBLE": "Y",
      "BIN": 2094582,
      "BBL": 2029510032
    },
    {
      "the_geom": "POINT (-73.85266908917056 40.88822009506579 ",
      "CITY": "Bronx",
      "NAME": "I.S./H.S. 362 - Bronx",
      "ADDRESS": "921 E 228 Street",
      "ZIP_CODE": 10466,
      "BOROCODE": 2,
      "STATE": "NY",
      "ACCESSIBLE": "Y",
      "BIN": 2064589,
      "BBL": 2048640035
    },
    {
      "the_geom": "POINT (-73.90699064822998 40.831893585490334 ",
      "CITY": "Bronx",
      "NAME": "P.S. 132 - Bronx",
      "ADDRESS": "1245 Washington Avenue",
      "ZIP_CODE": 10456,
      "BOROCODE": 2,
      "STATE": "NY",
      "ACCESSIBLE": "Y",
      "BIN": 2001619,
      "BBL": 2023900001
    },
    {
      "the_geom": "POINT (-73.919664554437 40.83549265459262 ",
      "CITY": "Bronx",
      "NAME": "P.S./I.S. 218 - Bronx",
      "ADDRESS": "1220 Gerard Avenue",
      "ZIP_CODE": 10452,
      "BOROCODE": 2,
      "STATE": "NY",
      "ACCESSIBLE": "Y",
      "BIN": 2097130,
      "BBL": 2024800008
    },
    {
      "the_geom": "POINT (-73.91417582805788 40.88805858303746 ",
      "CITY": "Bronx",
      "NAME": "M.S./H.S. 141 - Bronx",
      "ADDRESS": "660 W 237 Street",
      "ZIP_CODE": 10463,
      "BOROCODE": 2,
      "STATE": "NY",
      "ACCESSIBLE": "Y",
      "BIN": 2085870,
      "BBL": 2059180376
    },
        {
      "the_geom": "POINT (-73.91902100546525 40.827476992955226 ",
      "CITY": "Bronx",
      "NAME": "HS Of Law, Gov't & Justice - X",
      "ADDRESS": "244 E 163 Street",
      "ZIP_CODE": 10451,
      "BOROCODE": 2,
      "STATE": "NY",
      "ACCESSIBLE": "Y",
      "BIN": 2109459,
      "BBL": 2024450006
    },
        {
      "the_geom": "POINT (-73.89722928081869 40.85443375275054 ",
      "CITY": "Bronx",
      "NAME": "I.S. 391 (UDC  - Bronx",
      "ADDRESS": "2225 Webster Avenue",
      "ZIP_CODE": 10457,
      "BOROCODE": 2,
      "STATE": "NY",
      "ACCESSIBLE": "Y",
      "BIN": 2013307,
      "BBL": 2031430043
    },
        {
      "the_geom": "POINT (-73.8853081324496 40.81586895931832 ",
      "CITY": "Bronx",
      "NAME": "I.S. 201 - Bronx",
      "ADDRESS": "730 Bryant Avenue",
      "ZIP_CODE": 10474,
      "BOROCODE": 2,
      "STATE": "NY",
      "ACCESSIBLE": "Y",
      "BIN": 2006566,
      "BBL": 2027630279
    },
    {
      "the_geom": "POINT (-73.89051754411685 40.86704831751257 ",
      "CITY": "Bronx",
      "NAME": "P.S. 46 - Bronx",
      "ADDRESS": "2760 Briggs Avenue",
      "ZIP_CODE": 10458,
      "BOROCODE": 2,
      "STATE": "NY",
      "ACCESSIBLE": "Y",
      "BIN": 2094729,
      "BBL": 2032950001
    },
        {
      "the_geom": "POINT (-73.86622748089125 40.83820585821531 ",
      "CITY": "Bronx",
      "NAME": "P.S. 102 - Bronx",
      "ADDRESS": "1827 Archer Street",
      "ZIP_CODE": 10460,
      "BOROCODE": 2,
      "STATE": "NY",
      "ACCESSIBLE": "Y",
      "BIN": 2028640,
      "BBL": 2039210030
    },
    {
      "the_geom": "POINT (-73.9152409755709 40.850045108706404 ",
      "CITY": "Bronx",
      "NAME": "Morris Heights Educational Complex - Bronx",
      "ADDRESS": "1780 Dr. Martin Luther King Jr. Blvd",
      "ZIP_CODE": 10453,
      "BOROCODE": 2,
      "STATE": "NY",
      "ACCESSIBLE": "Y",
      "BIN": 2008470,
      "BBL": 2028660105
    }
]