[
    {
      "the_geom": "POINT (-73.8186225050414 40.77485678097445",
      "CITY": "Queens",
      "NAME": "J.H.S. 185 - Queens",
      "ADDRESS": "147-26 25 Drive",
      "ZIP_CODE": 11354,
      "BOROCODE": 4,
      "STATE": "NY",
      "ACCESSIBLE": "Y",
      "BIN": 4108664,
      "BBL": 4048020001
    },
    {
      "the_geom": "POINT (-73.94521850451875 40.681956132844554",
      "CITY": "Brooklyn",
      "NAME": "I.S. 258 - Brooklyn",
      "ADDRESS": "141 Macon Street",
      "ZIP_CODE": 11216,
      "BOROCODE": 3,
      "STATE": "NY",
      "ACCESSIBLE": "Y",
      "BIN": 3053075,
      "BBL": 3018450001
    },
    {
      "the_geom": "POINT (-73.98825949249553 40.66028374147973 ",
      "CITY": "Brooklyn",
      "NAME": "I.S. 88 - Brooklyn",
      "ADDRESS": "544 7 Avenue",
      "ZIP_CODE": 11215,
      "BOROCODE": 3,
      "STATE": "NY",
      "ACCESSIBLE": "Y",
      "BIN": 3331276,
      "BBL": 3008800001
    },
    {
      "the_geom": "POINT (-73.89704424213798 40.869933706874875 ",
      "CITY": "Bronx",
      "NAME": "Walton HS - X",
      "ADDRESS": "2780 Reservoir Avenue",
      "ZIP_CODE": 10468,
      "BOROCODE": 2,
      "STATE": "NY",
      "ACCESSIBLE": "Y",
      "BIN": 2015241,
      "BBL": 2032470070
    },
    {
      "the_geom": "POINT (-74.02453258829522 40.633451401699446 ",
      "CITY": "Brooklyn",
      "NAME": "P.S./I.S.30 Mary White Ovington - Brooklyn",
      "ADDRESS": "7002 4 Avenue",
      "ZIP_CODE": 11209,
      "BOROCODE": 3,
      "STATE": "NY",
      "ACCESSIBLE": "Y",
      "BIN": 3146550,
      "BBL": 3058910048
    },
    {
      "the_geom": "POINT (-73.9663563303682 40.759299630226494 ",
      "CITY": "Manhattan",
      "NAME": "Midtown East Campus - Manhattan",
      "ADDRESS": "233 E 56 Street",
      "ZIP_CODE": 10022,
      "BOROCODE": 1,
      "STATE": "NY",
      "ACCESSIBLE": "Y",
      "BIN": 1088892,
      "BBL": 1013300013
    },
    {
      "the_geom": "POINT (-73.97720245197735 40.61524666135812 ",
      "CITY": "Brooklyn",
      "NAME": "P.S. 226 - Brooklyn",
      "ADDRESS": "6006 23 Avenue",
      "ZIP_CODE": 11204,
      "BOROCODE": 3,
      "STATE": "NY",
      "ACCESSIBLE": "Y",
      "BIN": 3172071,
      "BBL": 3065490024
    },
    {
      "the_geom": "POINT (-73.99360201070182 40.716238370835626 ",
      "CITY": "Manhattan",
      "NAME": "I.S. 131 - Manhattan",
      "ADDRESS": "100 Hester Street",
      "ZIP_CODE": 10002,
      "BOROCODE": 1,
      "STATE": "NY",
      "ACCESSIBLE": "Y",
      "BIN": 1082489,
      "BBL": 1003010003
    },
    {
      "the_geom": "POINT (-73.78970200437473 40.76498726185747 ",
      "CITY": "Queens",
      "NAME": "J.H.S. 25 - Queens",
      "ADDRESS": "34-65 192 Street",
      "ZIP_CODE": 11355,
      "BOROCODE": 4,
      "STATE": "NY",
      "ACCESSIBLE": "Y",
      "BIN": 4119139,
      "BBL": 4052610001
    },
    {
      "the_geom": "POINT (-73.89307059425872 40.742155707855225 ",
      "CITY": "Queens",
      "NAME": "P.S. 12 - Queens",
      "ADDRESS": "42-00 72 Street",
      "ZIP_CODE": 11377,
      "BOROCODE": 4,
      "STATE": "NY",
      "ACCESSIBLE": "Y",
      "BIN": 4031853,
      "BBL": 4013490028
    },
    {
      "the_geom": "POINT (-73.9357073749906 40.83935802569442 ",
      "CITY": "Manhattan",
      "NAME": "I.S. 90 - Manhattan",
      "ADDRESS": "21 Jumel Place",
      "ZIP_CODE": 10023,
      "BOROCODE": 1,
      "STATE": "NY",
      "ACCESSIBLE": "Y",
      "BIN": 1076741,
      "BBL": 1021120058
    },
    {
      "the_geom": "POINT (-73.80266512114586 40.7096564189796 ",
      "CITY": "Queens",
      "NAME": "Hillcrest HS - Q",
      "ADDRESS": "160-05 Highland Avenue",
      "ZIP_CODE": 11432,
      "BOROCODE": 4,
      "STATE": "NY",
      "ACCESSIBLE": "Y",
      "BIN": 4448767,
      "BBL": 4097740001
    },
    {
      "the_geom": "POINT (-73.90087575096457 40.82733480011782 ",
      "CITY": "Bronx",
      "NAME": "I.S. 158 - Bronx",
      "ADDRESS": "800 Home Street",
      "ZIP_CODE": 10456,
      "BOROCODE": 2,
      "STATE": "NY",
      "ACCESSIBLE": "Y",
      "BIN": 2004868,
      "BBL": 2026710011
    },
    {
      "the_geom": "POINT (-73.76682865353507 40.745078241809026 ",
      "CITY": "Queens",
      "NAME": "I.S. 74 - Queens",
      "ADDRESS": "61-15 Oceania Street",
      "ZIP_CODE": 11362,
      "BOROCODE": 4,
      "STATE": "NY",
      "ACCESSIBLE": "Y",
      "BIN": 4163953,
      "BBL": 4077230001
    },
    {
      "the_geom": "POINT (-73.92023462224117 40.672930139059204 ",
      "CITY": "Brooklyn",
      "NAME": "P.S. 12 - Brooklyn",
      "ADDRESS": "430 Howard Avenue",
      "ZIP_CODE": 11233,
      "BOROCODE": 3,
      "STATE": "NY",
      "ACCESSIBLE": "Y",
      "BIN": 3039174,
      "BBL": 3014570032
    },
    {
      "the_geom": "POINT (-73.85175430783214 40.72324213805428 ",
      "CITY": "Queens",
      "NAME": "J.H.S. 190 - Queens",
      "ADDRESS": "68-17 Austin Street",
      "ZIP_CODE": 11375,
      "BOROCODE": 4,
      "STATE": "NY",
      "ACCESSIBLE": "Y",
      "BIN": 4075214,
      "BBL": 4031720002
    },
    {
      "the_geom": "POINT (-73.95409668855494 40.802598483589236 ",
      "CITY": "Manhattan",
      "NAME": "I.S. 88 - Manhattan",
      "ADDRESS": "215 W 114 Street",
      "ZIP_CODE": 10026,
      "BOROCODE": 1,
      "STATE": "NY",
      "ACCESSIBLE": "Y",
      "BIN": 1055204,
      "BBL": 1018300019
    },
    {
      "the_geom": "POINT (-73.95626720264204 40.649053301569396 ",
      "CITY": "Brooklyn",
      "NAME": "P.S. 6 - Brooklyn",
      "ADDRESS": "43 Snyder Avenue",
      "ZIP_CODE": 11226,
      "BOROCODE": 3,
      "STATE": "NY",
      "ACCESSIBLE": "Y",
      "BIN": 3117230,
      "BBL": 3051030079
    },
    {
      "the_geom": "POINT (-73.89006273089697 40.72869672739058 ",
      "CITY": "Queens",
      "NAME": "P.S. 58 - Queens",
      "ADDRESS": "72-24 Grand Avenue",
      "ZIP_CODE": 11378,
      "BOROCODE": 4,
      "STATE": "NY",
      "ACCESSIBLE": "Y",
      "BIN": 4607309,
      "BBL": 4028020001
    },
    {
      "the_geom": "POINT (-73.95147508866324 40.656414223009115 ",
      "CITY": "Brooklyn",
      "NAME": "I.S. 2 - Brooklyn",
      "ADDRESS": "655 Parkside Avenue",
      "ZIP_CODE": 11226,
      "BOROCODE": 3,
      "STATE": "NY",
      "ACCESSIBLE": "Y",
      "BIN": 3378201,
      "BBL": 3050500066
    },
    {
      "the_geom": "POINT (-73.89046989887038 40.843759841511776 ",
      "CITY": "Bronx",
      "NAME": "P.S. 211 - Bronx",
      "ADDRESS": "1919 Prospect Avenue",
      "ZIP_CODE": 10457,
      "BOROCODE": 2,
      "STATE": "NY",
      "ACCESSIBLE": "Y",
      "BIN": 2094582,
      "BBL": 2029510032
    },
    {
      "the_geom": "POINT (-73.8731565648259 40.68917494755181 ",
      "CITY": "Brooklyn",
      "NAME": "P.S. 7 - Brooklyn",
      "ADDRESS": "858 Jamaica Avenue",
      "ZIP_CODE": 11208,
      "BOROCODE": 3,
      "STATE": "NY",
      "ACCESSIBLE": "Y",
      "BIN": 3090998,
      "BBL": 3041060039
    },
    {
      "the_geom": "POINT (-73.94234931924015 40.673868511927935 ",
      "CITY": "Brooklyn",
      "NAME": "P.S. 289 - Brooklyn",
      "ADDRESS": "900 St Marks Avenue",
      "ZIP_CODE": 11213,
      "BOROCODE": 3,
      "STATE": "NY",
      "ACCESSIBLE": "Y",
      "BIN": 3031050,
      "BBL": 3012290028
    },
    {
      "the_geom": "POINT (-73.7288655611345 40.744457286701014 ",
      "CITY": "Queens",
      "NAME": "Queens H.S. of Teaching",
      "ADDRESS": "74-20 Commonwealth Blvd",
      "ZIP_CODE": 11426,
      "BOROCODE": 4,
      "STATE": "NY",
      "ACCESSIBLE": "Y",
      "BIN": 4529899,
      "BBL": 4078700072
    },
    {
      "the_geom": "POINT (-73.94745608604624 40.694465175046396 ",
      "CITY": "Brooklyn",
      "NAME": "P.S. 23 - Brooklyn",
      "ADDRESS": "545 Willoughby Avenue",
      "ZIP_CODE": 11206,
      "BOROCODE": 3,
      "STATE": "NY",
      "ACCESSIBLE": "Y",
      "BIN": 3048818,
      "BBL": 3017590013
    },
    {
      "the_geom": "POINT (-73.85266908917056 40.88822009506579 ",
      "CITY": "Bronx",
      "NAME": "I.S./H.S. 362 - Bronx",
      "ADDRESS": "921 E 228 Street",
      "ZIP_CODE": 10466,
      "BOROCODE": 2,
      "STATE": "NY",
      "ACCESSIBLE": "Y",
      "BIN": 2064589,
      "BBL": 2048640035
    },
    {
      "the_geom": "POINT (-73.87456694252899 40.755239152990846 ",
      "CITY": "Queens",
      "NAME": "P.S. 149 - Queens",
      "ADDRESS": "93-11 34 Avenue",
      "ZIP_CODE": 11372,
      "BOROCODE": 4,
      "STATE": "NY",
      "ACCESSIBLE": "Y",
      "BIN": 4035441,
      "BBL": 4014410015
    },
    {
      "the_geom": "POINT (-73.90699064822998 40.831893585490334 ",
      "CITY": "Bronx",
      "NAME": "P.S. 132 - Bronx",
      "ADDRESS": "1245 Washington Avenue",
      "ZIP_CODE": 10456,
      "BOROCODE": 2,
      "STATE": "NY",
      "ACCESSIBLE": "Y",
      "BIN": 2001619,
      "BBL": 2023900001
    },
    {
      "the_geom": "POINT (-73.98834759450574 40.694632261301344 ",
      "CITY": "Brooklyn",
      "NAME": "Adams Street Educational Campus - K",
      "ADDRESS": "283 Adams Street",
      "ZIP_CODE": 11201,
      "BOROCODE": 3,
      "STATE": "NY",
      "ACCESSIBLE": "Y",
      "BIN": 3331741,
      "BBL": 3001400010
    },
    {
      "the_geom": "POINT (-73.919664554437 40.83549265459262 ",
      "CITY": "Bronx",
      "NAME": "P.S./I.S. 218 - Bronx",
      "ADDRESS": "1220 Gerard Avenue",
      "ZIP_CODE": 10452,
      "BOROCODE": 2,
      "STATE": "NY",
      "ACCESSIBLE": "Y",
      "BIN": 2097130,
      "BBL": 2024800008
    },
    {
      "the_geom": "POINT (-73.91417582805788 40.88805858303746 ",
      "CITY": "Bronx",
      "NAME": "M.S./H.S. 141 - Bronx",
      "ADDRESS": "660 W 237 Street",
      "ZIP_CODE": 10463,
      "BOROCODE": 2,
      "STATE": "NY",
      "ACCESSIBLE": "Y",
      "BIN": 2085870,
      "BBL": 2059180376
    },
    {
      "the_geom": "POINT (-73.91928775501131 40.6976936325303 ",
      "CITY": "Brooklyn",
      "NAME": "I.S. 383 - Brooklyn",
      "ADDRESS": "1300 Greene Avenue",
      "ZIP_CODE": 11237,
      "BOROCODE": 3,
      "STATE": "NY",
      "ACCESSIBLE": "Y",
      "BIN": 3075413,
      "BBL": 3032980001
    },
    {
      "the_geom": "POINT (-74.1448917169114 40.62301715618512 ",
      "CITY": "Staten Island",
      "NAME": "I.S. 51 - Staten Island",
      "ADDRESS": "20 Houston Street",
      "ZIP_CODE": 10302,
      "BOROCODE": 5,
      "STATE": "NY",
      "ACCESSIBLE": "Y",
      "BIN": 5107210,
      "BBL": 5014780500
    },
    {
      "the_geom": "POINT (-73.95124375264218 40.666974703101964 ",
      "CITY": "Brooklyn",
      "NAME": "Medgar Evers College Prep",
      "ADDRESS": "1186 Carroll Street",
      "ZIP_CODE": 11225,
      "BOROCODE": 3,
      "STATE": "NY",
      "ACCESSIBLE": "Y",
      "BIN": 3348092,
      "BBL": 3012890025
    },
    {
      "the_geom": "POINT (-73.9446461562353 40.82999707805985 ",
      "CITY": "Manhattan",
      "NAME": "P.S./I.S. 210 - Manhattan",
      "ADDRESS": "501-503 W 152 Street",
      "ZIP_CODE": 10031,
      "BOROCODE": 1,
      "STATE": "NY",
      "ACCESSIBLE": "Y",
      "BIN": 1087824,
      "BBL": 1020840129
    },
    {
      "the_geom": "POINT (-73.79925521870591 40.7554063290318 ",
      "CITY": "Queens",
      "NAME": "P.S. 107 - Queens",
      "ADDRESS": "167-02 45 Avenue",
      "ZIP_CODE": 11358,
      "BOROCODE": 4,
      "STATE": "NY",
      "ACCESSIBLE": "Y",
      "BIN": 4123454,
      "BBL": 4054460018
    },
    {
      "the_geom": "POINT (-73.9041547375515 40.69918242813013 ",
      "CITY": "Queens",
      "NAME": "P.S. 239 - Queens",
      "ADDRESS": "17-15 Weirfield Street",
      "ZIP_CODE": 11385,
      "BOROCODE": 4,
      "STATE": "NY",
      "ACCESSIBLE": "Y",
      "BIN": 4435561,
      "BBL": 4035610001
    },
    {
      "the_geom": "POINT (-73.91902100546525 40.827476992955226 ",
      "CITY": "Bronx",
      "NAME": "HS Of Law, Gov't & Justice - X",
      "ADDRESS": "244 E 163 Street",
      "ZIP_CODE": 10451,
      "BOROCODE": 2,
      "STATE": "NY",
      "ACCESSIBLE": "Y",
      "BIN": 2109459,
      "BBL": 2024450006
    },
    {
      "the_geom": "POINT (-73.98095024373315 40.74643139547331 ",
      "CITY": "Manhattan",
      "NAME": "Norman Thomas HS (ECF  - Manhattan",
      "ADDRESS": "111 E 33 Street",
      "ZIP_CODE": 10016,
      "BOROCODE": 1,
      "STATE": "NY",
      "ACCESSIBLE": "Y",
      "BIN": 1087537,
      "BBL": 1008897501
    },
    {
      "the_geom": "POINT (-73.86582315889937 40.74931524379379 ",
      "CITY": "Queens",
      "NAME": "P.S. 307- Queens",
      "ADDRESS": "40-20 100 Street",
      "ZIP_CODE": 11368,
      "BOROCODE": 4,
      "STATE": "NY",
      "ACCESSIBLE": "Y",
      "BIN": 4040271,
      "BBL": 4016080058
    },
    {
      "the_geom": "POINT (-74.08185476145192 40.645380544708885 ",
      "CITY": "Staten Island",
      "NAME": "Curtis HS - S. I.",
      "ADDRESS": "105 Hamilton Avenue",
      "ZIP_CODE": 10301,
      "BOROCODE": 5,
      "STATE": "NY",
      "ACCESSIBLE": "Y",
      "BIN": 5106483,
      "BBL": 5000220001
    },
    {
      "the_geom": "POINT (-73.93237354807005 40.68793814772122 ",
      "CITY": "Brooklyn",
      "NAME": "I.S. 324 - Brooklyn",
      "ADDRESS": "800 Gates Avenue",
      "ZIP_CODE": 11221,
      "BOROCODE": 3,
      "STATE": "NY",
      "ACCESSIBLE": "Y",
      "BIN": 3044657,
      "BBL": 3016360001
    },
    {
      "the_geom": "POINT (-73.90963486079305 40.71126606472365 ",
      "CITY": "Queens",
      "NAME": "Grover Cleveland HS - Q",
      "ADDRESS": "21-27 Himrod Street",
      "ZIP_CODE": 11385,
      "BOROCODE": 4,
      "STATE": "NY",
      "ACCESSIBLE": "Y",
      "BIN": 4080227,
      "BBL": 4033630001
    },
    {
      "the_geom": "POINT (-73.9740069021562 40.785926191269716 ",
      "CITY": "Manhattan",
      "NAME": "Louis D. Brandeis HS - Manhattan",
      "ADDRESS": "145 W 84 Street",
      "ZIP_CODE": 10024,
      "BOROCODE": 1,
      "STATE": "NY",
      "ACCESSIBLE": "Y",
      "BIN": 1032128,
      "BBL": 1012150001
    },
    {
      "the_geom": "POINT (-74.00453928492661 40.652805532485885 ",
      "CITY": "Brooklyn",
      "NAME": "P.S. 24 - Brooklyn",
      "ADDRESS": "427 38 Street",
      "ZIP_CODE": 11232,
      "BOROCODE": 3,
      "STATE": "NY",
      "ACCESSIBLE": "Y",
      "BIN": 3346119,
      "BBL": 3007010001
    },
    {
      "the_geom": "POINT (-73.821357047386 40.73497558794618 ",
      "CITY": "Queens",
      "NAME": "Townsend Harris HS - Q",
      "ADDRESS": "149-11 Melbourne Avenue",
      "ZIP_CODE": 11367,
      "BOROCODE": 4,
      "STATE": "NY",
      "ACCESSIBLE": "Y",
      "BIN": 4538714,
      "BBL": 4065070200
    },
    {
      "the_geom": "POINT (-73.97644081210666 40.688955817188855 ",
      "CITY": "Brooklyn",
      "NAME": "Brooklyn Tech HS - K",
      "ADDRESS": "29 Fort Greene Place",
      "ZIP_CODE": 11217,
      "BOROCODE": 3,
      "STATE": "NY",
      "ACCESSIBLE": "Y",
      "BIN": 3058752,
      "BBL": 3020980013
    },
    {
      "the_geom": "POINT (-73.89722928081869 40.85443375275054 ",
      "CITY": "Bronx",
      "NAME": "I.S. 391 (UDC  - Bronx",
      "ADDRESS": "2225 Webster Avenue",
      "ZIP_CODE": 10457,
      "BOROCODE": 2,
      "STATE": "NY",
      "ACCESSIBLE": "Y",
      "BIN": 2013307,
      "BBL": 2031430043
    },
    {
      "the_geom": "POINT (-74.0147783416429 40.626213105525586 ",
      "CITY": "Brooklyn",
      "NAME": "I.S. 259 - Brooklyn",
      "ADDRESS": "7305 Ft Hamilton Parkway",
      "ZIP_CODE": 11228,
      "BOROCODE": 3,
      "STATE": "NY",
      "ACCESSIBLE": "Y",
      "BIN": 3148031,
      "BBL": 3059230001
    },
    {
      "the_geom": "POINT (-74.10434506993518 40.60899601014516 ",
      "CITY": "Staten Island",
      "NAME": "Michael J. Petrides",
      "ADDRESS": "715 Ocean Terrace",
      "ZIP_CODE": 10301,
      "BOROCODE": 5,
      "STATE": "NY",
      "ACCESSIBLE": "Y",
      "BIN": 5017080,
      "BBL": 5006830302
    },
    {
      "the_geom": "POINT (-74.15897931892695 40.58138899050915 ",
      "CITY": "Staten Island",
      "NAME": "Jerome Parker Campus - S.I.",
      "ADDRESS": "100 Essex Drive",
      "ZIP_CODE": 10314,
      "BOROCODE": 5,
      "STATE": "NY",
      "ACCESSIBLE": "Y",
      "BIN": 5149609,
      "BBL": 5024500320
    },
    {
      "the_geom": "POINT (-73.94581431348983 40.81471159765893 ",
      "CITY": "Manhattan",
      "NAME": "P.S. 92 - Manhattan",
      "ADDRESS": "222 W 134 Street",
      "ZIP_CODE": 10030,
      "BOROCODE": 1,
      "STATE": "NY",
      "ACCESSIBLE": "Y",
      "BIN": 1058808,
      "BBL": 1019390011
    },
    {
      "the_geom": "POINT (-73.82133980529291 40.67976045671587 ",
      "CITY": "Queens",
      "NAME": "P.S. 100 - Queens",
      "ADDRESS": "111-11 118 Street",
      "ZIP_CODE": 11420,
      "BOROCODE": 4,
      "STATE": "NY",
      "ACCESSIBLE": "Y",
      "BIN": 4250416,
      "BBL": 4116230001
    },
    {
      "the_geom": "POINT (-73.98563038662456 40.774899959763296 ",
      "CITY": "Manhattan",
      "NAME": "Martin Luther King, Jr. HS - M",
      "ADDRESS": "122 Amsterdam Avenue",
      "ZIP_CODE": 10023,
      "BOROCODE": 1,
      "STATE": "NY",
      "ACCESSIBLE": "Y",
      "BIN": 1030343,
      "BBL": 1011570025
    },
    {
      "the_geom": "POINT (-73.93359889247564 40.85317165423485 ",
      "CITY": "Manhattan",
      "NAME": "P.S. 48 - Manhattan",
      "ADDRESS": "4360-78 Broadway",
      "ZIP_CODE": 10033,
      "BOROCODE": 1,
      "STATE": "NY",
      "ACCESSIBLE": "Y",
      "BIN": 1076752,
      "BBL": 1021670029
    },
    {
      "the_geom": "POINT (-74.21396005256327 40.541989803454754 ",
      "CITY": "Staten Island",
      "NAME": "P.S. 56 - Staten Island",
      "ADDRESS": "250 Kramer Avenue",
      "ZIP_CODE": 10309,
      "BOROCODE": 5,
      "STATE": "NY",
      "ACCESSIBLE": "Y",
      "BIN": 5128148,
      "BBL": 5070440001
    },
    {
      "the_geom": "POINT (-73.9132600390299 40.674490936322485 ",
      "CITY": "Brooklyn",
      "NAME": "I.S. 55 - Brooklyn",
      "ADDRESS": "2021 Bergen Street",
      "ZIP_CODE": 11233,
      "BOROCODE": 3,
      "STATE": "NY",
      "ACCESSIBLE": "Y",
      "BIN": 3038939,
      "BBL": 3014480001
    },
    {
      "the_geom": "POINT (-73.92516451426961 40.7561267934487 ",
      "CITY": "Queens",
      "NAME": "Frank Sinatra High School-Q",
      "ADDRESS": "35-12 35th Avenue",
      "ZIP_CODE": 11101,
      "BOROCODE": 4,
      "STATE": "NY",
      "ACCESSIBLE": "Y",
      "BIN": 4009594,
      "BBL": 4006390016
    },
    {
      "the_geom": "POINT (-73.78520179472864 40.70766542628424 ",
      "CITY": "Queens",
      "NAME": "P.S. 268 - Queens",
      "ADDRESS": "92-07 175 Street",
      "ZIP_CODE": 11433,
      "BOROCODE": 4,
      "STATE": "NY",
      "ACCESSIBLE": "Y",
      "BIN": 4217573,
      "BBL": 4102150001
    },
    {
      "the_geom": "POINT (-73.8853081324496 40.81586895931832 ",
      "CITY": "Bronx",
      "NAME": "I.S. 201 - Bronx",
      "ADDRESS": "730 Bryant Avenue",
      "ZIP_CODE": 10474,
      "BOROCODE": 2,
      "STATE": "NY",
      "ACCESSIBLE": "Y",
      "BIN": 2006566,
      "BBL": 2027630279
    },
    {
      "the_geom": "POINT (-73.89051754411685 40.86704831751257 ",
      "CITY": "Bronx",
      "NAME": "P.S. 46 - Bronx",
      "ADDRESS": "2760 Briggs Avenue",
      "ZIP_CODE": 10458,
      "BOROCODE": 2,
      "STATE": "NY",
      "ACCESSIBLE": "Y",
      "BIN": 2094729,
      "BBL": 2032950001
    },
    {
      "the_geom": "POINT (-73.92945375815141 40.74349499260167 ",
      "CITY": "Queens",
      "NAME": "Aviation HS - Q",
      "ADDRESS": "45-30 36 Street",
      "ZIP_CODE": 11101,
      "BOROCODE": 4,
      "STATE": "NY",
      "ACCESSIBLE": "Y",
      "BIN": 4436685,
      "BBL": 4002260001
    },
    {
      "the_geom": "POINT (-73.86622748089125 40.83820585821531 ",
      "CITY": "Bronx",
      "NAME": "P.S. 102 - Bronx",
      "ADDRESS": "1827 Archer Street",
      "ZIP_CODE": 10460,
      "BOROCODE": 2,
      "STATE": "NY",
      "ACCESSIBLE": "Y",
      "BIN": 2028640,
      "BBL": 2039210030
    },
    {
      "the_geom": "POINT (-73.9152409755709 40.850045108706404 ",
      "CITY": "Bronx",
      "NAME": "Morris Heights Educational Complex - Bronx",
      "ADDRESS": "1780 Dr. Martin Luther King Jr. Blvd",
      "ZIP_CODE": 10453,
      "BOROCODE": 2,
      "STATE": "NY",
      "ACCESSIBLE": "Y",
      "BIN": 2008470,
      "BBL": 2028660105
    }
  ]